GLOBALSTAR M082         
1 38042U 11080C   24267.93988406 -.00000094  00000+0  54661-4 0  9994
2 38042  52.0061  95.9588 0000757  48.3004  99.5320 12.62267045589875
GLOBALSTAR M092         
1 38043U 11080D   24267.89889615 -.00000070  00000+0  18939-3 0  9993
2 38043  52.0078 186.4466 0000478  71.1263  10.5002 12.62266417588327
GLOBALSTAR M090         
1 38044U 11080E   24267.77835047 -.00000106  00000+0 -11053-4 0  9993
2 38044  51.9872  90.6015 0000795  69.7331 303.7721 12.62268016589979
GLOBALSTAR M086         
1 38045U 11080F   24267.74630422 -.00000096  00000+0  41932-4 0  9997
2 38045  51.9883  91.2289 0001767  88.4066  20.0482 12.62267443589915
GLOBALSTAR M097         
1 39072U 13005A   24267.59091106 -.00000093  00000+0  57463-4 0  9993
2 39072  52.0075   5.9813 0000793  83.2095 276.8862 12.62270489537223
GLOBALSTAR M093         
1 39073U 13005B   24267.72240675 -.00000076  00000+0  15615-3 0  9999
2 39073  51.9840 359.3079 0000734  79.2891 280.8058 12.62264367537114
